STARLINK-30494          
1 57970U 23151G   26068.36049035 -.00001272  00000+0 -35691-4 0  9993
2 57970  43.0027 192.4566 0001155 241.5536 118.5200 15.28417441137406
STARLINK-35305          
1 66561U 25268E   26067.99192392 -.00033055  00000+0 -11986-2 0  9996
2 66561  42.9995 350.9526 0001415 290.3728  69.6972 15.27536182 17856
